#dP2024  2  1  6  0  0.00000000      96 __u+U IGS20 EXT  IAC
## 2299 367200.00000000   900.00000000 60341 0.2500000000000
+  119   C06C07C08C09C10C11C12C13C14C16C19C20C21C22C23C24C25
+        C26C27C28C29C30C32C33C34C35C36C37C38C39C40C41C42C43
+        C44C45C46E02E03E04E05E07E08E09E10E11E12E13E14E15E18
+        E19E21E24E25E26E27E30E31E33E34E36G01G02G03G04G05G06
+        G07G08G09G10G11G12G13G14G15G16G17G18G19G20G21G22G23
+        G24G25G26G28G29G30G31G32J02J03J04R01R02R03R04R05R07
+        R08R09R11R12R13R14R15R16R17R18R19R20R21R22R24R25R26
++         9 10  9  9  9  9  8  8 10  9  8  8  9  7  7  8  7
++         8  8  9  9  8  8  9  7  9  9  7  9  9  9  7  8  9
++        10  8  9  7  7  7  7  7  7  8  7  8  7  8 10  9  8
++         8  7  7  7  8  7  7  7  7  8  8  7  7  8  9  7  8
++         6  7  8  7  8  7  7  8  7  7 10  6  7  9  8  7  7
++         7  8  7  7  8  7  7  6  9  9 10  8  7  9  9  8  8
++         9  7  8  7  8  7  7  8  7  8  8  8  9  7  8  9 11
%c M  cc GPS ccc cccc cccc cccc cccc ccccc ccccc ccccc ccccc
%c cc cc ccc ccc cccc cccc cccc cccc ccccc ccccc ccccc ccccc
%f  0.0000000  0.000000000  0.00000000000  0.000000000000000
%f  0.0000000  0.000000000  0.00000000000  0.000000000000000
%i    0    0    0    0      0      0      0      0         0
%i    0    0    0    0      0      0      0      0         0
/* IAC                                ULTRA-RAPID PREDICTION
/* S/V CLOCKS ARE ALIGNED TO GNSS TIME                      
/* G:C1WC2W R:C1PC2P E:C1XC5X C:C2IC6I J:C1CC2S             
/* PCV:IGS20_2290 OL/AL:FES2004  NONE     YN ORB:CoN CLK:CoN
*  2024 02 01 11 30  0.00000000
PC06  -2276.743935  29355.466788 -30038.955114     82.821705
PC07 -15650.021451  29681.072429  25502.283767   -730.968019
PC08 -11512.491887  40658.307787   1310.292046     70.979592
PC09   6061.518895  33555.647019 -23947.412367   -430.880959
PC10  -7691.648794  29800.516159  28956.486621    102.843032
PC11  22502.887889    516.756088 -16427.444186    387.977192
PC12  24074.943732  14097.483008    581.356226    780.847671
PC13  -5545.091180  41388.584941  -6643.404743    413.317158
PC14  25088.605962 -10508.106072  -6350.090911     93.468126
PC16  -3132.084057  28132.123822 -30864.639258   -314.415443
PC19 -22504.638699  16224.527587  -2877.288903   -931.222085
PC20 -24132.006674   4355.965155  13307.490174   -120.651497
PC21  11246.369603  11268.226473 -22903.770139   -963.041716
PC22  -7812.735718  19453.992213 -18406.940961   -125.983029
PC23   2680.216222 -27336.460301   4900.302173   -784.580956
PC24  16153.698975   5381.931315  22090.788644    844.006577
PC25  12635.817541 -16313.550890  18761.743603    315.680343
PC26  10411.263238  22569.909314  12700.092041   -242.968891
PC27 -19585.269480 -17806.353972  -8877.826374    264.992005
PC28  -4104.645539 -18543.933495 -20440.140734    201.348427
PC29 -16586.799012   8146.271095  20909.063862    235.943297
PC30 -25952.990991  -7024.040472   7517.045669    -20.385783
PC32 -11226.812622 -11290.578411  22934.406585   -561.297823
PC33  22442.506016 -16359.931931   2818.285670   -945.859266
PC34  25775.145606   5841.910232  -8930.759255    359.815698
PC35   4645.930398  18411.590159  20424.737782    443.840753
PC36 -13235.257832  15499.034926 -19055.847667    -30.921608
PC37  -9660.995528 -23075.618798 -12337.043542   -933.833332
PC38 -15108.685836  38291.088769   9491.724416    134.098879
PC39  -8849.868604  23700.268704 -33639.905674     -6.919871
PC40 -22972.758964  23485.339548  26264.323344    -54.581189
PC41   8516.638669 -19667.028077  17934.060797   -885.348032
PC42  23635.113778  -3150.817236 -14474.198080   -458.885794
PC43  17380.796442  -7572.553426 -20477.195707     58.713801
PC44  20097.527291  17122.170767   8971.062767    371.350565
PC45  -2546.776941  27411.162689  -4668.278697    -67.214240
PC46 -16129.698351  -4228.406250 -22385.313223   -120.299735
PE02  21171.159611 -12703.808516  16299.418998     99.819048
PE03  28117.194807  -4797.963937   7922.967545    -90.897396
PE04 -13140.189501  14959.657726 -21896.537271   -317.126631
PE05  26499.093819   8017.060238 -10467.953343   4715.877313
PE07  -8917.757043 -16330.969678  23023.641693   -101.470065
PE08  13846.824180 -14622.223937  21696.117654   -217.047533
PE09   8807.800465  16208.773874 -23149.188206   -320.394245
PE10   3650.258888  25730.458536  14169.725288   -598.595335
PE11  11342.269326  26972.859047   4402.373309   3267.077236
PE12  -3921.831368  20828.635757  20656.460908   -887.662136
PE13 -10943.631286 -27034.165816  -5085.405425    -20.059817
PE14  27809.697864   8623.393252   7873.027659     27.004464
PE15   4239.337574 -20440.629800 -20978.509131    -83.375329
PE18 -17079.455924 -13995.626574 -14758.921532    276.971743
PE19 -28847.432075   3148.491604  -5847.362654   -699.655286
PE21 -15532.197984  -6756.088812 -24283.848076   -576.803964
PE24    169.164649  23425.505634  18088.454999   -574.099640
PE25  15289.884459   7174.548112  24305.022995      0.289023
PE26 -19659.034636 -17151.956110  13997.415601    356.109586
PE27   -603.573737 -23164.909463 -18414.018830   -263.807011
PE30  14725.753351 -25620.527783  -1536.460362   -871.531966
PE31 -14522.044399  25740.336823   1748.768784    -15.030619
PE33 -16960.593056   1356.580088  24229.789093      6.902956
PE34  16719.001589  -1990.996995 -24343.417659    -92.210557
PE36  19471.418747  17724.019369 -13502.173188   -179.872908
PG01 -16819.252582  -3753.756233  19975.903873    167.913977
PG02 -19599.044671  -9675.098408  15764.447859   -492.169661
PG03 -17148.490196   2746.052882  19919.492233    164.877367
PG04 -26580.149785  -1631.253665    453.609005    280.790545
PG05  11916.468623   9562.830182 -21889.335674   -160.150690
PG06   4121.369587  23533.983104  11554.607476    423.773158
PG07 -11486.391343  10333.804291 -21074.122494    -51.461473
PG08 -24433.064359  -6086.970743  -9190.079638   -164.938920
PG09 -22629.882235   8204.189190 -11375.896543     77.692529
PG10   9857.632379 -23863.652482   5645.274622    -71.581817
PG11  11691.761874  23876.871679    214.242851   -560.731588
PG12  17507.008152  -1259.827035  19627.773431   -473.672481
PG13  17310.568385  13371.976772 -15422.025678    621.440952
PG14 -13024.828703  22962.666690   1795.921249    314.185641
PG15  24690.656328   3936.999446  -9749.149886    123.184898
PG16  -6314.228231 -15781.964866 -20623.890556   -372.072884
PG17 -11601.035147  13131.556671  20431.737336    718.304872
PG18  10319.232969 -11635.926955 -21489.197239   -545.754446
PG19   -921.197851  14916.296247  21775.208527    434.593341
PG20   3789.304130  21211.426320 -15577.604595    389.151607
PG21 -19815.316188 -14545.973735  11714.557114    136.466100
PG22  -8488.737986  23462.231585   9949.334696     38.453758
PG23  16334.966746 -19618.507586  -6944.542158    147.053825
PG24  19856.735361  11773.091022  13080.839731   -424.317664
PG25  18507.990088 -12924.232790  13435.530435    487.207891
PG26    197.513200 -22808.759142 -13440.663377    194.711554
PG28  -2529.485290 -22637.591787  13640.276027   -116.757203
PG29  24006.327762  -4932.453302 -10411.926528   -607.778907
PG30  -3483.598592  19776.562211 -17124.514395   -438.197999
PG31  -8924.297591 -24255.390482   4890.867111   -227.602547
PG32   7012.879845 -14710.478398  21131.188995   -609.063429
PJ02 -28525.331735  30628.495569   -511.690302     -1.614323
PJ03 -25279.716499  23401.927256  29440.942146     -0.210598
PJ04 -31444.929732  26274.029471  -4572.181981     78.802462
PR01   5846.180725   9394.307468 -22979.476583     76.030935
PR02  20435.099727   -195.631784 -15171.370427    -22.445207
PR03  23450.128040  -9864.778596   1376.589697     93.689519
PR04  13703.285339 -13521.515755  16756.866417    221.549142
PR05  -3480.515962 -10144.384821  23157.380900    126.229328
PR07 -23332.199013  10154.223715  -2109.651044     74.851424
PR08 -13467.389178  13682.845045 -16753.030077    -74.243384
PR09 -10235.328938  -7240.709961 -22212.640850    167.583350
PR11  -6736.115107  23491.532782  -7280.619943     35.758077
PR12   2515.969644  22439.068403  11900.974851     36.259318
PR13   9216.259466   9760.457640  21669.554371    -43.906041
PR14  11280.204451 -11619.203577  19717.794904     26.004407
PR15   6356.143440 -24006.555873   5845.311627     82.585938
PR16  -2404.494118 -22580.504447 -11649.801315     22.929915
PR17  15049.774457     83.648852 -20593.207370     57.513610
PR18   1495.507062 -11923.514813 -22489.145733    125.146496
PR19 -10994.636755 -18099.661881 -14216.777522   -264.186374
PR20 -20291.462716 -14145.988972   6340.590259   -107.614832
PR21 -14750.604683     53.180759  20808.553078    -73.512758
PR22  -1222.072402  12782.932352  22066.338997    105.971676
PR24  20935.719911  12891.267606  -6793.613837    -42.165415
PR25 -15111.988709   -360.104800  20550.060580     75.987544
PR26 -14094.958490  13755.084753 -16175.887976   -200.541580
EOF
